start=new Date('2022-01-25T00:00:00.000Z').valueOf();
sats=[{"COUNTRY_CODE":"US","RA_OF_ASC_NODE":"351.7267","APOAPSIS":"548.490","MEAN_MOTION_DDOT":"0.0000000000000","MEAN_MOTION":"15.06398234","EPOCH":"2022-01-24T22:25:02.042688","INCLINATION":"53.0540","MEAN_ANOMALY":"296.5708","ECCENTRICITY":"0.00018350","SITE":"AFETR","TLE_LINE1":"1 45577U 20025AY  22024.93405142 -.00001783  00000-0 -10081-3 0  9999","OBJECT_TYPE":"PAYLOAD","MEAN_MOTION_DOT":"-0.00001783","LAUNCH_DATE":"2020-04-22","SEMIMAJOR_AXIS":"6925.354","MEAN_ELEMENT_THEORY":"SGP4","NORAD_CAT_ID":"45577","PERIOD":"95.592","ARG_OF_PERICENTER":"63.5469","PERIAPSIS":"545.948","OBJECT_ID":"2020-025AY","DECAY_DATE":null,"OBJECT_NAME":"STARLINK-1330","TIME_SYSTEM":"UTC","FILE":"3282614","BSTAR":"-0.00010081000000","CENTER_NAME":"EARTH","REF_FRAME":"TEME","REV_AT_EPOCH":"9870","CLASSIFICATION_TYPE":"U","ELEMENT_SET_NO":"999","EPHEMERIS_TYPE":"0","TLE_LINE2":"2 45577  53.0540 351.7267 0001835  63.5469 296.5708 15.06398234 98700","GP_ID":"194568039","RCS_SIZE":"LARGE"},{"RCS_SIZE":"LARGE","GP_ID":"194529561","TLE_LINE2":"2 45578  53.0544 353.9591 0001653  63.1895 296.9263 15.06401155 98646","EPHEMERIS_TYPE":"0","ELEMENT_SET_NO":"999","CLASSIFICATION_TYPE":"U","REF_FRAME":"TEME","REV_AT_EPOCH":"9864","CENTER_NAME":"EARTH","BSTAR":"0.00021199000000","TIME_SYSTEM":"UTC","FILE":"3281820","OBJECT_NAME":"STARLINK-1331","DECAY_DATE":null,"OBJECT_ID":"2020-025AZ","PERIAPSIS":"546.065","ARG_OF_PERICENTER":"63.1895","PERIOD":"95.592","NORAD_CAT_ID":"45578","MEAN_ELEMENT_THEORY":"SGP4","LAUNCH_DATE":"2020-04-22","SEMIMAJOR_AXIS":"6925.345","MEAN_MOTION_DOT":"0.00002878","SITE":"AFETR","TLE_LINE1":"1 45578U 20025AZ  22024.44013725  .00002878  00000-0  21199-3 0  9994","OBJECT_TYPE":"PAYLOAD","ECCENTRICITY":"0.00016530","INCLINATION":"53.0544","MEAN_ANOMALY":"296.9263","EPOCH":"2022-01-24T10:33:47.858400","MEAN_MOTION":"15.06401155","MEAN_MOTION_DDOT":"0.0000000000000","APOAPSIS":"548.355","RA_OF_ASC_NODE":"353.9591","COUNTRY_CODE":"US"},{"REV_AT_EPOCH":"9925","REF_FRAME":"TEME","CENTER_NAME":"EARTH","BSTAR":"0.00030942000000","TIME_SYSTEM":"UTC","FILE":"3282614","TLE_LINE2":"2 45579  53.0538 312.1918 0000790 154.1623 205.9406 15.06424962 99259","EPHEMERIS_TYPE":"0","ELEMENT_SET_NO":"999","CLASSIFICATION_TYPE":"U","RCS_SIZE":"LARGE","GP_ID":"194569034","ARG_OF_PERICENTER":"154.1623","PERIOD":"95.591","OBJECT_ID":"2020-025BA","PERIAPSIS":"546.590","OBJECT_NAME":"STARLINK-1332","DECAY_DATE":null,"TLE_LINE1":"1 45579U 20025BA  22024.82988476  .00004334  00000-0  30942-3 0  9996","SITE":"AFETR","OBJECT_TYPE":"PAYLOAD","SEMIMAJOR_AXIS":"6925.272","LAUNCH_DATE":"2020-04-22","MEAN_MOTION_DOT":"0.00004334","MEAN_ELEMENT_THEORY":"SGP4","NORAD_CAT_ID":"45579","APOAPSIS":"547.684","COUNTRY_CODE":"US","RA_OF_ASC_NODE":"312.1918","MEAN_MOTION_DDOT":"0.0000000000000","EPOCH":"2022-01-24T19:55:02.043264","MEAN_MOTION":"15.06424962","ECCENTRICITY":"0.00007900","MEAN_ANOMALY":"205.9406","INCLINATION":"53.0538"},{"RCS_SIZE":"LARGE","GP_ID":"194568289","REV_AT_EPOCH":"9856","REF_FRAME":"TEME","CENTER_NAME":"EARTH","BSTAR":"-0.00007270300000","FILE":"3282614","TIME_SYSTEM":"UTC","TLE_LINE2":"2 45580  53.0552   1.8283 0001587  65.1742 294.9412 15.06396083 98562","ELEMENT_SET_NO":"999","EPHEMERIS_TYPE":"0","CLASSIFICATION_TYPE":"U","OBJECT_NAME":"STARLINK-1333","DECAY_DATE":null,"ARG_OF_PERICENTER":"65.1742","PERIOD":"95.592","OBJECT_ID":"2020-025BB","PERIAPSIS":"546.127","MEAN_ELEMENT_THEORY":"SGP4","NORAD_CAT_ID":"45580","SITE":"AFETR","TLE_LINE1":"1 45580U 20025BB  22024.91102045 -.00001364  00000-0 -72703-4 0  9992","OBJECT_TYPE":"PAYLOAD","LAUNCH_DATE":"2020-04-22","SEMIMAJOR_AXIS":"6925.361","MEAN_MOTION_DOT":"-0.00001364","EPOCH":"2022-01-24T21:51:52.166880","MEAN_MOTION":"15.06396083","ECCENTRICITY":"0.00015870","INCLINATION":"53.0552","MEAN_ANOMALY":"294.9412","APOAPSIS":"548.325","COUNTRY_CODE":"US","RA_OF_ASC_NODE":"1.8283","MEAN_MOTION_DDOT":"0.0000000000000"},{"MEAN_MOTION_DDOT":"0.0000000000000","APOAPSIS":"548.404","COUNTRY_CODE":"US","RA_OF_ASC_NODE":"351.8115","ECCENTRICITY":"0.00016940","INCLINATION":"53.0551","MEAN_ANOMALY":"288.4576","EPOCH":"2022-01-24T21:58:29.620704","MEAN_MOTION":"15.06394250","LAUNCH_DATE":"2020-04-22","SEMIMAJOR_AXIS":"6925.366","MEAN_MOTION_DOT":"-0.00001724","SITE":"AFETR","TLE_LINE1":"1 45581U 20025BC  22024.91562061 -.00001724  00000-0 -96877-4 0  9999","OBJECT_TYPE":"PAYLOAD","NORAD_CAT_ID":"45581","MEAN_ELEMENT_THEORY":"SGP4","OBJECT_ID":"2020-025BC","PERIAPSIS":"546.058","ARG_OF_PERICENTER":"71.6598","PERIOD":"95.593","OBJECT_NAME":"STARLINK-1335","DECAY_DATE":null,"TLE_LINE2":"2 45581  53.0551 351.8115 0001694  71.6598 288.4576 15.06394250 98703","CLASSIFICATION_TYPE":"U","ELEMENT_SET_NO":"999","EPHEMERIS_TYPE":"0","REF_FRAME":"TEME","REV_AT_EPOCH":"9870","CENTER_NAME":"EARTH","BSTAR":"-0.00009687700000","FILE":"3282614","TIME_SYSTEM":"UTC","RCS_SIZE":"LARGE","GP_ID":"194568539"},{"CLASSIFICATION_TYPE":"U","ELEMENT_SET_NO":"999","EPHEMERIS_TYPE":"0","TLE_LINE2":"2 45582  53.0537 351.7096 0001769  65.2084 294.9089 15.06396756 98701","FILE":"3282614","TIME_SYSTEM":"UTC","REV_AT_EPOCH":"9870","REF_FRAME":"TEME","CENTER_NAME":"EARTH","BSTAR":"0.00000151750000","GP_ID":"194568791","RCS_SIZE":"LARGE","PERIAPSIS":"545.998","OBJECT_ID":"2020-025BD","PERIOD":"95.592","ARG_OF_PERICENTER":"65.2084","DECAY_DATE":null,"OBJECT_NAME":"STARLINK-1337","MEAN_MOTION_DOT":"-0.00000259","LAUNCH_DATE":"2020-04-22","SEMIMAJOR_AXIS":"6925.359","SITE":"AFETR","TLE_LINE1":"1 45582U 20025BD  22024.93773408 -.00000259  00000-0  15175-5 0  9995","OBJECT_TYPE":"PAYLOAD","NORAD_CAT_ID":"45582","MEAN_ELEMENT_THEORY":"SGP4","MEAN_MOTION_DDOT":"0.0000000000000","COUNTRY_CODE":"US","RA_OF_ASC_NODE":"351.7096","APOAPSIS":"548.449","INCLINATION":"53.0537","MEAN_ANOMALY":"294.9089","ECCENTRICITY":"0.00017690","MEAN_MOTION":"15.06396756","EPOCH":"2022-01-24T22:30:20.224512"},{"APOAPSIS":"548.592","COUNTRY_CODE":"US","RA_OF_ASC_NODE":"351.7910","MEAN_MOTION_DDOT":"0.0000000000000","EPOCH":"2022-01-24T22:03:47.501856","MEAN_MOTION":"15.06396451","ECCENTRICITY":"0.00019740","INCLINATION":"53.0538","MEAN_ANOMALY":"300.5191","SITE":"AFETR","TLE_LINE1":"1 45583U 20025BE  22024.91929979 -.00001763  00000-0 -99447-4 0  9995","OBJECT_TYPE":"PAYLOAD","SEMIMAJOR_AXIS":"6925.359","LAUNCH_DATE":"2020-04-22","MEAN_MOTION_DOT":"-0.00001763","MEAN_ELEMENT_THEORY":"SGP4","NORAD_CAT_ID":"45583","ARG_OF_PERICENTER":"59.5993","PERIOD":"95.592","OBJECT_ID":"2020-025BE","PERIAPSIS":"545.857","OBJECT_NAME":"STARLINK-1340","DECAY_DATE":null,"REV_AT_EPOCH":"9870","REF_FRAME":"TEME","BSTAR":"-0.00009944700000","CENTER_NAME":"EARTH","FILE":"3282614","TIME_SYSTEM":"UTC","TLE_LINE2":"2 45583  53.0538 351.7910 0001974  59.5993 300.5191 15.06396451 98701","EPHEMERIS_TYPE":"0","ELEMENT_SET_NO":"999","CLASSIFICATION_TYPE":"U","RCS_SIZE":"LARGE","GP_ID":"194569534"},{"CLASSIFICATION_TYPE":"U","ELEMENT_SET_NO":"999","EPHEMERIS_TYPE":"0","TLE_LINE2":"2 45584  53.0551 351.8347 0001936  82.3700 277.7509 15.06412919 98706","TIME_SYSTEM":"UTC","FILE":"3282614","CENTER_NAME":"EARTH","BSTAR":"0.00007335200000","REV_AT_EPOCH":"9870","REF_FRAME":"TEME","GP_ID":"194567790","RCS_SIZE":"LARGE","PERIAPSIS":"545.833","OBJECT_ID":"2020-025BF","PERIOD":"95.591","ARG_OF_PERICENTER":"82.3700","DECAY_DATE":null,"OBJECT_NAME":"STARLINK-1343","MEAN_MOTION_DOT":"0.00000811","SEMIMAJOR_AXIS":"6925.309","LAUNCH_DATE":"2020-04-22","OBJECT_TYPE":"PAYLOAD","TLE_LINE1":"1 45584U 20025BF  22024.90825122  .00000811  00000-0  73352-4 0  9998","SITE":"AFETR","NORAD_CAT_ID":"45584","MEAN_ELEMENT_THEORY":"SGP4","MEAN_MOTION_DDOT":"0.0000000000000","COUNTRY_CODE":"US","RA_OF_ASC_NODE":"351.8347","APOAPSIS":"548.515","INCLINATION":"53.0551","MEAN_ANOMALY":"277.7509","ECCENTRICITY":"0.00019360","MEAN_MOTION":"15.06412919","EPOCH":"2022-01-24T21:47:52.905408"},{"GP_ID":"194568040","RCS_SIZE":"LARGE","ELEMENT_SET_NO":"999","EPHEMERIS_TYPE":"0","CLASSIFICATION_TYPE":"U","TLE_LINE2":"2 45586  53.0571 351.7422 0001657  58.1954 301.9196 15.06392712 98693","TIME_SYSTEM":"UTC","FILE":"3282614","REV_AT_EPOCH":"9869","REF_FRAME":"TEME","CENTER_NAME":"EARTH","BSTAR":"-0.00010010000000","DECAY_DATE":null,"OBJECT_NAME":"STARLINK-1347","PERIAPSIS":"546.088","OBJECT_ID":"2020-025BH","PERIOD":"95.593","ARG_OF_PERICENTER":"58.1954","NORAD_CAT_ID":"45586","MEAN_ELEMENT_THEORY":"SGP4","MEAN_MOTION_DOT":"-0.00001772","LAUNCH_DATE":"2020-04-22","SEMIMAJOR_AXIS":"6925.371","TLE_LINE1":"1 45586U 20025BH  22024.93036660 -.00001772  00000-0 -10010-3 0  9994","OBJECT_TYPE":"PAYLOAD","SITE":"AFETR","INCLINATION":"53.0571","MEAN_ANOMALY":"301.9196","ECCENTRICITY":"0.00016570","MEAN_MOTION":"15.06392712","EPOCH":"2022-01-24T22:19:43.674240","MEAN_MOTION_DDOT":"0.0000000000000","RA_OF_ASC_NODE":"351.7422","COUNTRY_CODE":"US","APOAPSIS":"548.383"},{"APOAPSIS":"548.415","COUNTRY_CODE":"US","RA_OF_ASC_NODE":"351.8760","MEAN_MOTION_DDOT":"0.0000000000000","EPOCH":"2022-01-24T21:37:15.742560","MEAN_MOTION":"15.06402617","ECCENTRICITY":"0.00017460","MEAN_ANOMALY":"291.5497","INCLINATION":"53.0536","SITE":"AFETR","TLE_LINE1":"1 45587U 20025BJ  22024.90087665 -.00000974  00000-0 -46455-4 0  9999","OBJECT_TYPE":"PAYLOAD","LAUNCH_DATE":"2020-04-22","SEMIMAJOR_AXIS":"6925.341","MEAN_MOTION_DOT":"-0.00000974","MEAN_ELEMENT_THEORY":"SGP4","NORAD_CAT_ID":"45587","ARG_OF_PERICENTER":"68.5678","PERIOD":"95.592","OBJECT_ID":"2020-025BJ","PERIAPSIS":"545.996","OBJECT_NAME":"STARLINK-1349","DECAY_DATE":null,"REF_FRAME":"TEME","REV_AT_EPOCH":"9870","BSTAR":"-0.00004645500000","CENTER_NAME":"EARTH","TIME_SYSTEM":"UTC","FILE":"3282614","TLE_LINE2":"2 45587  53.0536 351.8760 0001746  68.5678 291.5497 15.06402617 98704","EPHEMERIS_TYPE":"0","ELEMENT_SET_NO":"999","CLASSIFICATION_TYPE":"U","RCS_SIZE":"LARGE","GP_ID":"194569291"}];
